OBJECT_NAME,OBJECT_ID,EPOCH,MEAN_MOTION,ECCENTRICITY,INCLINATION,RA_OF_ASC_NODE,ARG_OF_PERICENTER,MEAN_ANOMALY,NORAD_CAT_ID,ELEMENT_SET_NO,REV_AT_EPOCH,BSTAR,MEAN_MOTION_DOT,MEAN_MOTION_DDOT
CZ-4B DEB,1999-057CW,2026-03-21T04:33:57.396960,14.54903639,0.00706783,98.5359,56.8999,43.1315,336.2431,26208.0,999.0,37456.0,0.00022891376,9.66e-06,0.0
CZ-4B DEB,1999-057CX,2026-03-20T21:38:54.131424,14.65894946,0.00279536,98.639,245.4736,3.8127,162.7367,26209.0,999.0,38439.0,0.0001470381,7.53e-06,0.0
CZ-4B DEB,1999-057CZ,2026-03-20T16:21:24.015744,13.33375496,0.05414009,98.9369,151.2883,117.658,37.4455,26211.0,999.0,26236.0,0.00029330883,2.99e-06,0.0
CZ-4B DEB,1999-057DJ,2026-03-21T07:14:46.846176,14.77609144,0.00679662,98.6405,192.4165,213.8463,204.3774,26220.0,999.0,39709.0,0.00015807268,1.11e-05,0.0
CZ-4B DEB,1999-057DL,2026-03-21T04:09:06.330816,14.54776591,0.00677659,98.4864,140.0287,355.9687,4.0955,26222.0,999.0,37097.0,0.00029718302,1.262e-05,0.0
CZ-4B DEB,1999-057DR,2026-03-21T02:41:34.297728,14.5613845,0.00693381,98.4799,139.5337,1.3105,60.5775,26227.0,999.0,37069.0,0.00032113078,1.412e-05,0.0
CZ-4B DEB,1999-057DY,2026-03-21T07:20:54.760704,14.55560048,0.00113821,98.5952,197.3765,169.8928,250.0887,26234.0,999.0,37753.0,0.00015942155,6.46e-06,0.0
CZ-4B DEB,1999-057DZ,2026-03-21T05:06:42.000768,15.35463621,0.00119865,98.4932,252.2584,222.1267,137.9053,26235.0,999.0,39093.0,0.0028604987,0.00099886,0.0
CZ-4B DEB,1999-057EA,2026-03-21T02:53:53.702880,14.39639695,0.00899328,98.7169,129.2939,41.7323,12.2899,26236.0,999.0,36387.0,0.00010415214,2.94e-06,0.0
CZ-4B DEB,1999-057EF,2026-03-21T07:26:20.772960,14.34588694,0.01073067,98.9047,97.8496,289.1232,87.9726,26241.0,999.0,35908.0,0.00010401462,2.64e-06,0.0
CZ-4B DEB,1999-057EV,2026-03-21T04:36:31.188096,14.74800138,0.00587765,98.3814,174.462,294.3225,123.4752,26259.0,999.0,37123.0,0.00087435597,5.965e-05,0.0
CZ-4B DEB,1999-057EW,2026-03-21T04:25:29.224128,14.76657193,0.00549726,98.341,163.7852,276.9448,82.5509,26260.0,999.0,37111.0,0.0010632043,7.568e-05,0.0
CZ-4B DEB,1999-057EY,2026-03-21T04:26:34.021536,14.81416351,0.00394304,98.3322,176.6185,68.3484,356.9578,26262.0,999.0,37477.0,0.0011218379,8.845e-05,0.0
CZ-4B DEB,1999-057FB,2026-03-21T04:08:50.295840,14.43400154,0.00969937,98.6419,145.4409,100.0789,319.6045,26265.0,999.0,36211.0,0.00028382012,9.66e-06,0.0
CZ-4B DEB,1999-057FC,2026-03-21T04:39:44.527968,14.72718878,0.00691162,98.4156,177.154,353.4606,6.5691,26266.0,999.0,37028.0,0.00087859328,5.767e-05,0.0
CZ-4B DEB,1999-057FJ,2026-03-21T04:48:12.426912,14.81118854,0.00494724,98.265,169.3618,9.3456,48.8428,26272.0,999.0,37583.0,0.00093286143,7.347e-05,0.0
CZ-4B DEB,1999-057FK,2026-03-20T22:26:56.399136,14.81950491,0.00578385,98.6977,223.4072,208.6906,269.3761,26273.0,999.0,39632.0,0.00023821317,1.877e-05,0.0
CZ-4B DEB,1999-057FS,2026-03-20T14:52:29.997696,14.38403378,0.008603,98.7339,128.4481,93.465,58.8534,26280.0,999.0,36173.0,0.00011108,3.07e-06,0.0
CZ-4B DEB,1999-057FV,2026-03-20T04:30:47.511360,14.56315978,0.00776395,98.4648,146.1238,73.7021,354.0111,26283.0,999.0,36816.0,0.0003694654,1.654e-05,0.0
CZ-4B DEB,1999-057FY,2026-03-21T04:12:24.765696,14.63894772,0.00601375,98.3937,144.1849,162.8041,269.3294,26286.0,999.0,37433.0,0.00053417245,2.815e-05,0.0
CZ-4B DEB,1999-057GG,2026-03-21T04:01:15.381696,14.55090982,0.00781532,98.4732,149.5194,96.2463,318.4476,26294.0,999.0,36931.0,0.00042748377,1.871e-05,0.0
CZ-4B DEB,1999-057GL,2026-03-21T04:06:26.305920,14.68891193,0.00605333,98.3615,148.1982,162.5817,257.1131,26300.0,999.0,37320.0,0.00070610198,4.193e-05,0.0
CZ-4B DEB,1999-057GP,2026-03-20T01:54:02.439360,14.38136825,0.00969554,98.7557,125.5355,109.3424,281.8192,26306.0,999.0,36046.0,0.00010323915,2.83e-06,0.0
CZ-4B DEB,1999-057GT,2026-03-21T04:31:31.472544,14.4819301,0.00874831,98.5371,146.7507,292.8968,131.2602,26310.0,999.0,36447.0,0.00028497456,1.064e-05,0.0
CZ-4B DEB,1999-057GW,2026-03-20T22:55:12.059616,14.57707758,0.00725678,98.4529,145.5418,35.7904,140.9741,26313.0,999.0,36916.0,0.00038754979,1.783e-05,0.0
CZ-4B DEB,1999-057HG,2026-03-20T10:53:19.580640,14.58420671,0.0065791,98.4405,145.5239,327.9886,45.579,26323.0,999.0,37035.0,0.00034444377,1.593e-05,0.0
CZ-4B DEB,1999-057HN,2026-03-21T04:54:48.911328,14.85840781,0.00478695,98.2916,174.0401,85.1143,331.7627,26329.0,999.0,37427.0,0.0014859943,0.00013165,0.0
CZ-4B DEB,1999-057HV,2026-03-20T14:12:46.709856,14.7495112,0.005077,98.3513,140.6749,108.1037,252.571,26336.0,999.0,37269.0,0.00080532,5.471e-05,0.0
CZ-4B DEB,1999-057HX,2026-03-21T03:21:16.469280,14.39924825,0.00904542,98.7033,130.0952,66.6198,356.9705,26338.0,999.0,36379.0,0.00013624956,4.02e-06,0.0
CZ-4B DEB,1999-057JG,2026-03-20T10:31:30.871200,14.57224669,0.00524931,98.4503,144.0946,315.0344,44.6609,26347.0,999.0,36848.0,0.00033238372,1.479e-05,0.0
CZ-4B DEB,1999-057JL,2026-03-20T06:44:00.070368,14.5325707,0.005448,98.6264,103.3606,298.501,61.0705,26351.0,999.0,37158.0,0.00023454,9.41e-06,0.0
CZ-4B DEB,1999-057KD,2026-03-20T08:03:22.038336,14.93609014,0.00551643,98.5529,214.0456,91.1547,269.5991,26432.0,999.0,35852.0,0.0015696756,0.00017035,0.0
CZ-4B DEB,1999-057KH,2026-03-20T22:20:22.307136,12.98137169,0.07033764,99.5188,163.9213,82.0014,286.025,26436.0,999.0,59139.0,5.6783521e-05,2.1e-07,0.0
CZ-4B DEB,1999-057KP,2026-03-20T18:21:09.383616,14.61025342,0.00565459,98.5475,94.4681,124.4815,291.0417,26442.0,999.0,36809.0,0.00037126533,1.811e-05,0.0
CZ-4B DEB,1999-057KQ,2026-03-20T22:50:15.520128,14.43135046,0.00921946,98.6302,139.6301,0.8462,172.5244,26443.0,999.0,36081.0,0.00016841,5.46e-06,0.0
CZ-4B DEB,1999-057KR,2026-03-20T16:53:47.635584,14.68138276,0.00670583,98.5251,160.5791,337.6471,184.2398,26444.0,999.0,37607.0,0.00027505083,1.578e-05,0.0
CZ-4B DEB,1999-057KT,2026-03-21T03:45:52.922592,14.48801266,0.00936232,98.5609,151.2358,27.1457,333.4586,26446.0,999.0,35830.0,0.00037196881,1.435e-05,0.0
CZ-4B DEB,1999-057KW,2026-03-21T03:21:36.596160,14.50992296,0.0078554,98.5183,145.8954,148.4376,266.4688,26449.0,999.0,36579.0,0.00033878519,1.345e-05,0.0
CZ-4B DEB,1999-057KZ,2026-03-20T09:55:40.248192,14.74229641,0.00531234,98.3273,144.8477,28.6952,345.8657,26454.0,999.0,35853.0,0.00051912111,3.453e-05,0.0
ARIANE 44LP DEB [SPELDA],2000-046C,2026-03-21T02:55:53.848128,4.53266494,0.55157423,3.5363,262.5905,236.3587,58.3792,26471.0,999.0,34882.0,0.00076583344,2.85e-06,0.0
ARIANE 5 DEB [SYLDA],2000-054D,2026-03-21T03:47:30.535584,2.28160352,0.71407875,6.8691,181.9795,0.6411,252.7094,26497.0,999.0,21169.0,0.00094153303,-7.2e-07,0.0
TITAN 3C TRANSTAGE DEB,1965-108AK,2026-03-20T09:56:13.360992,2.8177368,0.66993514,26.4643,128.9135,127.5611,357.4841,26524.0,999.0,4135.0,-0.0034903353,-2.81e-06,0.0
TITAN 3C TRANSTAGE DEB,1965-108AL,2026-03-17T16:54:32.781312,2.83276319,0.66905673,26.2096,202.0405,319.196,18.4341,26525.0,999.0,26813.0,0.00037201819,-5.3e-07,0.0
TITAN 3C TRANSTAGE DEB,1965-108AP,2026-03-08T05:17:27.204864,2.68043131,0.66586732,27.5724,324.509,235.8381,336.4465,26528.0,999.0,26573.0,-0.003719863,-1.75e-06,0.0
TITAN 3C TRANSTAGE DEB,1965-108AR,2026-03-18T01:16:44.417568,2.82971821,0.67596564,26.8708,142.4989,257.0096,25.0755,26530.0,999.0,27400.0,0.0041109833,1.172e-05,0.0
COSMOS 1823 DEB,1987-020DT,2026-03-20T23:20:11.984352,12.41291979,0.00281733,73.603,162.7643,12.0245,170.6431,26601.0,999.0,26915.0,0.00023156867,1.4e-07,0.0
ARIANE 5 DEB [SYLDA],2000-072F,2026-03-20T01:01:30.275328,2.03120699,0.73334268,6.8945,49.3997,101.5702,352.6874,26613.0,999.0,18750.0,0.0011983266,9.6e-07,0.0
CZ-4B DEB,1999-057LL,2026-03-20T17:42:05.674752,14.68777603,0.00810251,98.6433,187.0272,319.9165,39.6077,26654.0,999.0,33787.0,0.0013116167,7.99e-05,0.0
CZ-4B DEB,1999-057LQ,2026-03-20T21:49:21.060192,14.55719194,0.00653232,98.5178,131.3906,354.9744,185.5655,26658.0,999.0,34833.0,0.00031371655,1.36e-05,0.0
CZ-4B DEB,1999-057LT,2026-03-20T05:25:17.963040,15.49506144,0.00034778,98.1655,182.5478,101.5556,289.1465,26661.0,999.0,36896.0,0.0031466568,0.00176953,0.0
NIMBUS 2 DEB,1966-040J,2026-03-20T09:20:41.027136,13.88144943,0.0032342,100.1202,120.3705,62.4202,313.7208,26669.0,999.0,27753.0,0.0034647397,4.105e-05,0.0
NIMBUS 2 DEB,1966-040K,2026-03-21T04:36:28.803456,13.98049843,0.00301762,100.2921,266.3499,299.2177,121.7003,26670.0,999.0,93830.0,0.0045708446,6.471e-05,0.0
COSMOS 1285 DEB,1981-071L,2026-03-21T02:47:41.702496,1.98310934,0.73970955,63.2652,19.7148,44.7717,354.84,26680.0,999.0,20625.0,0.0048248308,-5.5e-06,0.0
ARIANE 1 DEB,1984-023G,2026-03-20T22:43:24.292416,2.60142668,0.68546464,8.5777,114.5873,343.8526,41.58,26681.0,999.0,25841.0,0.0053267169,3.81e-06,0.0
ARIANE 1 DEB,1985-056H,2026-03-06T02:35:53.493792,2.22747293,0.70883458,6.1543,26.2629,152.5396,352.371,26683.0,999.0,10860.0,0.0026459696,-1.41e-06,0.0
ARIANE 1 DEB,1985-056J,2026-03-19T19:15:34.813728,2.37076881,0.70695116,5.8177,97.8495,355.8116,85.4085,26684.0,999.0,23499.0,0.0018006633,1.85e-06,0.0
DELTA 1 DEB,1975-052KB,2026-03-19T22:02:04.608096,13.55297153,0.0258313,99.7701,309.9066,130.6238,357.991,26701.0,999.0,25004.0,0.00068892,5.48e-06,0.0
ARIANE 2 DEB,1989-006C,2026-03-21T02:58:27.738624,2.26349329,0.71639308,7.7283,184.6294,224.8656,63.8452,26717.0,999.0,20848.0,0.00077695423,1.7e-07,0.0
ARIANE 5 DEB [SYLDA],2001-011D,2026-03-20T22:41:59.002656,2.22953934,0.70732557,2.4479,342.1099,90.141,343.3012,26722.0,999.0,20394.0,0.0057496467,6.8e-07,0.0
ARIANE 2 DEB,1989-006D,2026-03-20T05:34:38.119296,2.27652116,0.7168627,7.7694,128.3936,333.1512,9.2786,26726.0,999.0,20919.0,0.00017744826,6.2e-07,0.0
ARIANE 2 DEB,1989-006E,2026-03-21T04:58:08.762304,2.28947735,0.71540198,7.9188,128.815,329.0777,218.2381,26727.0,999.0,20967.0,0.0015874813,2.07e-06,0.0
ARIANE 2 DEB,1989-006F,2026-03-20T20:36:19.108800,2.49433935,0.70334256,7.8594,243.2727,100.9053,338.8022,26728.0,999.0,21797.0,0.0094800545,2.956e-05,0.0
